"county","cousub20","state","place","stab","CountyName","MCDName","PlaceName","hus20","afact"
"County code","County subdivision (2020)","State code","Place code","State abbr.","County name","County subdivision / MCD name","Place name","Total housing units (2020 Census)","cousub20-to-place allocation factor"
"09001","04720","09","04790","CT","Fairfield CT","Bethel town, Fairfield CT","Bethel CDP, CT",4934,0.6183 
"09001","04720","09","99999","CT","Fairfield CT","Bethel town, Fairfield CT","[not in a place]",3046,0.3817 
"09001","08070","09","08000","CT","Fairfield CT","Bridgeport town, Fairfield CT","Bridgeport city, CT",58874,1 
"09001","08980","09","08910","CT","Fairfield CT","Brookfield town, Fairfield CT","Brookfield Center CDP, CT",234,0.0329 
"09001","08980","09","11500","CT","Fairfield CT","Brookfield town, Fairfield CT","Candlewood Lake Club CDP, CT",65,0.0091 
"09001","08980","09","11640","CT","Fairfield CT","Brookfield town, Fairfield CT","Candlewood Orchards CDP, CT",362,0.0509 
"09001","08980","09","11780","CT","Fairfield CT","Brookfield town, Fairfield CT","Candlewood Shores CDP, CT",310,0.0436 
"09001","08980","09","99999","CT","Fairfield CT","Brookfield town, Fairfield CT","[not in a place]",6145,0.8635 
"09001","18500","09","18430","CT","Fairfield CT","Danbury town, Fairfield CT","Danbury city, CT",33562,1 
"09001","18850","09","18936","CT","Fairfield CT","Darien town, Fairfield CT","Darien Downtown CDP, CT",558,0.0768 
"09001","18850","09","53540","CT","Fairfield CT","Darien town, Fairfield CT","Noroton CDP, CT",1833,0.2523 
"09001","18850","09","53610","CT","Fairfield CT","Darien town, Fairfield CT","Noroton Heights CDP, CT",1078,0.1484 
"09001","18850","09","76150","CT","Fairfield CT","Darien town, Fairfield CT","Tokeneke CDP, CT",973,0.1339 
"09001","18850","09","99999","CT","Fairfield CT","Darien town, Fairfield CT","[not in a place]",2823,0.3886 
"09001","23890","09","60365","CT","Fairfield CT","Easton town, Fairfield CT","Plattsville CDP, CT",314,0.1139 
"09001","23890","09","99999","CT","Fairfield CT","Easton town, Fairfield CT","[not in a place]",2442,0.8861 
"09001","26620","09","26698","CT","Fairfield CT","Fairfield town, Fairfield CT","Fairfield University CDP, CT",26,0.0012 
"09001","26620","09","47990","CT","Fairfield CT","Fairfield town, Fairfield CT","Mill Plain CDP, CT",593,0.027 
"09001","26620","09","49720","CT","Fairfield CT","Fairfield town, Fairfield CT","Murray CDP, CT",325,0.0148 
"09001","26620","09","60365","CT","Fairfield CT","Fairfield town, Fairfield CT","Plattsville CDP, CT",111,0.005 
"09001","26620","09","66086","CT","Fairfield CT","Fairfield town, Fairfield CT","Sacred Heart University CDP, CT",1,0 
"09001","26620","09","71040","CT","Fairfield CT","Fairfield town, Fairfield CT","Southport CDP, CT",898,0.0409 
"09001","26620","09","99999","CT","Fairfield CT","Fairfield town, Fairfield CT","[not in a place]",20028,0.9111 
"09001","33620","09","10660","CT","Fairfield CT","Greenwich town, Fairfield CT","Byram CDP, CT",1802,0.0702 
"09001","33620","09","17520","CT","Fairfield CT","Greenwich town, Fairfield CT","Cos Cob CDP, CT",2743,0.1068 
"09001","33620","09","31520","CT","Fairfield CT","Greenwich town, Fairfield CT","Glenville CDP, CT",1120,0.0436 
"09001","33620","09","33690","CT","Fairfield CT","Greenwich town, Fairfield CT","Greenwich CDP, CT",6771,0.2637 
"09001","33620","09","39695","CT","Fairfield CT","Greenwich town, Fairfield CT","Indian Field CDP, CT",294,0.0114 
"09001","33620","09","56900","CT","Fairfield CT","Greenwich town, Fairfield CT","Old Greenwich CDP, CT",2440,0.095 
"09001","33620","09","59210","CT","Fairfield CT","Greenwich town, Fairfield CT","Pemberwick CDP, CT",1675,0.0652 
"09001","33620","09","64530","CT","Fairfield CT","Greenwich town, Fairfield CT","Riverside CDP, CT",3119,0.1215 
"09001","33620","09","65160","CT","Fairfield CT","Greenwich town, Fairfield CT","Rock Ridge CDP, CT",268,0.0104 
"09001","33620","09","99999","CT","Fairfield CT","Greenwich town, Fairfield CT","[not in a place]",5445,0.2121 
"09001","48620","09","24520","CT","Fairfield CT","Monroe town, Fairfield CT","East Village CDP, CT",1463,0.2115 
"09001","48620","09","73280","CT","Fairfield CT","Monroe town, Fairfield CT","Stepney CDP, CT",1734,0.2507 
"09001","48620","09","99999","CT","Fairfield CT","Monroe town, Fairfield CT","[not in a place]",3721,0.5379 
"09001","50580","09","50576","CT","Fairfield CT","New Canaan town, Fairfield CT","New Canaan CDP, CT",2807,0.3742 
"09001","50580","09","99999","CT","Fairfield CT","New Canaan town, Fairfield CT","[not in a place]",4695,0.6258 
"09001","50860","09","02480","CT","Fairfield CT","New Fairfield town, Fairfield CT","Ball Pond CDP, CT",882,0.1565 
"09001","50860","09","04965","CT","Fairfield CT","New Fairfield town, Fairfield CT","Bigelow Corners CDP, CT",217,0.0385 
"09001","50860","09","06155","CT","Fairfield CT","New Fairfield town, Fairfield CT","Bogus Hill CDP, CT",60,0.0106 
"09001","50860","09","11360","CT","Fairfield CT","New Fairfield town, Fairfield CT","Candlewood Isle CDP, CT",349,0.0619 
"09001","50860","09","11430","CT","Fairfield CT","New Fairfield town, Fairfield CT","Candlewood Knolls CDP, CT",229,0.0406 
"09001","50860","09","39747","CT","Fairfield CT","New Fairfield town, Fairfield CT","Inglenook CDP, CT",356,0.0632 
"09001","50860","09","40077","CT","Fairfield CT","New Fairfield town, Fairfield CT","Kellogg Point CDP, CT",21,0.0037 
"09001","50860","09","40920","CT","Fairfield CT","New Fairfield town, Fairfield CT","Knollcrest CDP, CT",209,0.0371 
"09001","50860","09","66113","CT","Fairfield CT","New Fairfield town, Fairfield CT","Sail Harbor CDP, CT",72,0.0128 
"09001","50860","09","75065","CT","Fairfield CT","New Fairfield town, Fairfield CT","Taylor Corners CDP, CT",212,0.0376 
"09001","50860","09","99999","CT","Fairfield CT","New Fairfield town, Fairfield CT","[not in a place]",3028,0.5374 
"09001","52980","09","06680","CT","Fairfield CT","Newtown town, Fairfield CT","Botsford CDP, CT",174,0.0169 
"09001","52980","09","20250","CT","Fairfield CT","Newtown town, Fairfield CT","Dodgingtown CDP, CT",131,0.0127 
"09001","52980","09","37490","CT","Fairfield CT","Newtown town, Fairfield CT","Hawleyville CDP, CT",61,0.0059 
"09001","52980","09","52910","CT","Fairfield CT","Newtown town, Fairfield CT","Newtown borough, CT",763,0.0739 
"09001","52980","09","66700","CT","Fairfield CT","Newtown town, Fairfield CT","Sandy Hook CDP, CT",3561,0.345 
"09001","52980","09","99999","CT","Fairfield CT","Newtown town, Fairfield CT","[not in a place]",5632,0.5456 
"09001","56060","09","55990","CT","Fairfield CT","Norwalk town, Fairfield CT","Norwalk city, CT",38152,1 
"09001","63480","09","30540","CT","Fairfield CT","Redding town, Fairfield CT","Georgetown CDP, CT",209,0.057 
"09001","63480","09","63620","CT","Fairfield CT","Redding town, Fairfield CT","Redding Center CDP, CT",116,0.0317 
"09001","63480","09","76400","CT","Fairfield CT","Redding town, Fairfield CT","Topstone CDP, CT",37,0.0101 
"09001","63480","09","99999","CT","Fairfield CT","Redding town, Fairfield CT","[not in a place]",3302,0.9012 
"09001","63970","09","07100","CT","Fairfield CT","Ridgefield town, Fairfield CT","Branchville CDP, CT",97,0.0102 
"09001","63970","09","41585","CT","Fairfield CT","Ridgefield town, Fairfield CT","Lakes East CDP, CT",516,0.0543 
"09001","63970","09","41736","CT","Fairfield CT","Ridgefield town, Fairfield CT","Lakes West CDP, CT",402,0.0423 
"09001","63970","09","44660","CT","Fairfield CT","Ridgefield town, Fairfield CT","Mamanasco Lake CDP, CT",209,0.022 
"09001","63970","09","63830","CT","Fairfield CT","Ridgefield town, Fairfield CT","Ridgebury CDP, CT",752,0.0791 
"09001","63970","09","63900","CT","Fairfield CT","Ridgefield town, Fairfield CT","Ridgefield CDP, CT",3191,0.3357 
"09001","63970","09","65685","CT","Fairfield CT","Ridgefield town, Fairfield CT","Route 7 Gateway CDP, CT",281,0.0296 
"09001","63970","09","83045","CT","Fairfield CT","Ridgefield town, Fairfield CT","West Mountain CDP, CT",229,0.0241 
"09001","63970","09","99999","CT","Fairfield CT","Ridgefield town, Fairfield CT","[not in a place]",3829,0.4028 
"09001","68170","09","68100","CT","Fairfield CT","Shelton town, Fairfield CT","Shelton city, CT",17174,1 
"09001","68310","09","41714","CT","Fairfield CT","Sherman town, Fairfield CT","Lakeside Woods CDP, CT",189,0.1031 
"09001","68310","09","66113","CT","Fairfield CT","Sherman town, Fairfield CT","Sail Harbor CDP, CT",22,0.012 
"09001","68310","09","68240","CT","Fairfield CT","Sherman town, Fairfield CT","Sherman CDP, CT",50,0.0273 
"09001","68310","09","99999","CT","Fairfield CT","Sherman town, Fairfield CT","[not in a place]",1573,0.8577 
"09001","73070","09","73000","CT","Fairfield CT","Stamford town, Fairfield CT","Stamford city, CT",56953,1 
"09001","74190","09","44000","CT","Fairfield CT","Stratford town, Fairfield CT","Lordship CDP, CT",1462,0.0676 
"09001","74190","09","57880","CT","Fairfield CT","Stratford town, Fairfield CT","Oronoque CDP, CT",2025,0.0936 
"09001","74190","09","74303","CT","Fairfield CT","Stratford town, Fairfield CT","Stratford Downtown CDP, CT",673,0.0311 
"09001","74190","09","99999","CT","Fairfield CT","Stratford town, Fairfield CT","[not in a place]",17483,0.8078 
"09001","77200","09","18675","CT","Fairfield CT","Trumbull town, Fairfield CT","Daniels Farm CDP, CT",1970,0.1497 
"09001","77200","09","43580","CT","Fairfield CT","Trumbull town, Fairfield CT","Long Hill CDP, CT",2920,0.2219 
"09001","77200","09","75116","CT","Fairfield CT","Trumbull town, Fairfield CT","Tashua CDP, CT",1417,0.1077 
"09001","77200","09","77278","CT","Fairfield CT","Trumbull town, Fairfield CT","Trumbull Center CDP, CT",3702,0.2813 
"09001","77200","09","99999","CT","Fairfield CT","Trumbull town, Fairfield CT","[not in a place]",3150,0.2394 
"09001","83430","09","30540","CT","Fairfield CT","Weston town, Fairfield CT","Georgetown CDP, CT",67,0.0183 
"09001","83430","09","83360","CT","Fairfield CT","Weston town, Fairfield CT","Weston CDP, CT",327,0.0891 
"09001","83430","09","99999","CT","Fairfield CT","Weston town, Fairfield CT","[not in a place]",3277,0.8927 
"09001","83500","09","16085","CT","Fairfield CT","Westport town, Fairfield CT","Coleytown CDP, CT",1229,0.1163 
"09001","83500","09","16525","CT","Fairfield CT","Westport town, Fairfield CT","Compo CDP, CT",1382,0.1308 
"09001","83500","09","33480","CT","Fairfield CT","Westport town, Fairfield CT","Greens Farms CDP, CT",1238,0.1172 
"09001","83500","09","56935","CT","Fairfield CT","Westport town, Fairfield CT","Old Hill CDP, CT",1010,0.0956 
"09001","83500","09","61555","CT","Fairfield CT","Westport town, Fairfield CT","Poplar Plains CDP, CT",451,0.0427 
"09001","83500","09","66770","CT","Fairfield CT","Westport town, Fairfield CT","Saugatuck CDP, CT",1286,0.1217 
"09001","83500","09","73175","CT","Fairfield CT","Westport town, Fairfield CT","Staples CDP, CT",2604,0.2464 
"09001","83500","09","83586","CT","Fairfield CT","Westport town, Fairfield CT","Westport Village CDP, CT",1367,0.1294 
"09001","86370","09","11990","CT","Fairfield CT","Wilton town, Fairfield CT","Cannondale CDP, CT",75,0.0114 
"09001","86370","09","30540","CT","Fairfield CT","Wilton town, Fairfield CT","Georgetown CDP, CT",444,0.0676 
"09001","86370","09","71215","CT","Fairfield CT","Wilton town, Fairfield CT","South Wilton CDP, CT",632,0.0962 
"09001","86370","09","86380","CT","Fairfield CT","Wilton town, Fairfield CT","Wilton Center CDP, CT",737,0.1122 
"09001","86370","09","99999","CT","Fairfield CT","Wilton town, Fairfield CT","[not in a place]",4679,0.7125 
"09003","02060","09","99999","CT","Hartford CT","Avon town, Hartford CT","[not in a place]",7713,1 
"09003","04300","09","40150","CT","Hartford CT","Berlin town, Hartford CT","Kensington CDP, CT",4283,0.4997 
"09003","04300","09","99999","CT","Hartford CT","Berlin town, Hartford CT","[not in a place]",4288,0.5003 
"09003","05910","09","06050","CT","Hartford CT","Bloomfield town, Hartford CT","Blue Hills CDP, CT",1077,0.1108 
"09003","05910","09","99999","CT","Hartford CT","Bloomfield town, Hartford CT","[not in a place]",8640,0.8892 
"09003","08490","09","08420","CT","Hartford CT","Bristol town, Hartford CT","Bristol city, CT",27251,1 
"09003","10100","09","99999","CT","Hartford CT","Burlington town, Hartford CT","[not in a place]",3628,1 
"09003","12270","09","12370","CT","Hartford CT","Canton town, Hartford CT","Canton Valley CDP, CT",815,0.1859 
"09003","12270","09","16120","CT","Hartford CT","Canton town, Hartford CT","Collinsville CDP, CT",1640,0.3742 
"09003","12270","09","99999","CT","Hartford CT","Canton town, Hartford CT","[not in a place]",1928,0.4399 
"09003","22070","09","99999","CT","Hartford CT","East Granby town, Hartford CT","[not in a place]",2183,1 
"09003","22630","09","22700","CT","Hartford CT","East Hartford town, Hartford CT","East Hartford CDP, CT",21361,1 
"09003","24800","09","08770","CT","Hartford CT","East Windsor town, Hartford CT","Broad Brook CDP, CT",1914,0.3579 
"09003","24800","09","99999","CT","Hartford CT","East Windsor town, Hartford CT","[not in a place]",3434,0.6421 
"09003","25990","09","37770","CT","Hartford CT","Enfield town, Hartford CT","Hazardville CDP, CT",2751,0.1551 
"09003","25990","09","68450","CT","Hartford CT","Enfield town, Hartford CT","Sherwood Manor CDP, CT",2441,0.1376 
"09003","25990","09","71460","CT","Hartford CT","Enfield town, Hartford CT","Southwood Acres CDP, CT",3333,0.1879 
"09003","25990","09","75940","CT","Hartford CT","Enfield town, Hartford CT","Thompsonville CDP, CT",3792,0.2137 
"09003","25990","09","99999","CT","Hartford CT","Enfield town, Hartford CT","[not in a place]",5424,0.3057 
"09003","27600","09","99999","CT","Hartford CT","Farmington town, Hartford CT","[not in a place]",11667,1 
"09003","31240","09","31270","CT","Hartford CT","Glastonbury town, Hartford CT","Glastonbury Center CDP, CT",4132,0.2853 
"09003","31240","09","99999","CT","Hartford CT","Glastonbury town, Hartford CT","[not in a place]",10349,0.7147 
"09003","32640","09","54660","CT","Hartford CT","Granby town, Hartford CT","North Granby CDP, CT",684,0.1538 
"09003","32640","09","66455","CT","Hartford CT","Granby town, Hartford CT","Salmon Brook CDP, CT",1088,0.2446 
"09003","32640","09","99999","CT","Hartford CT","Granby town, Hartford CT","[not in a place]",2676,0.6016 
"09003","37070","09","37000","CT","Hartford CT","Hartford town, Hartford CT","Hartford city, CT",53259,1 
"09003","37140","09","99999","CT","Hartford CT","Hartland town, Hartford CT","[not in a place]",843,1 
"09003","44700","09","44690","CT","Hartford CT","Manchester town, Hartford CT","Manchester CDP, CT",16321,0.6172 
"09003","44700","09","99999","CT","Hartford CT","Manchester town, Hartford CT","[not in a place]",10124,0.3828 
"09003","45820","09","75200","CT","Hartford CT","Marlborough town, Hartford CT","Terramuggus CDP, CT",418,0.175 
"09003","45820","09","99999","CT","Hartford CT","Marlborough town, Hartford CT","[not in a place]",1970,0.825 
"09003","50440","09","50370","CT","Hartford CT","New Britain town, Hartford CT","New Britain city, CT",31510,1 
"09003","52140","09","52210","CT","Hartford CT","Newington town, Hartford CT","Newington CDP, CT",13219,1 
"09003","60120","09","99999","CT","Hartford CT","Plainville town, Hartford CT","[not in a place]",8045,1 
"09003","65370","09","99999","CT","Hartford CT","Rocky Hill town, Hartford CT","[not in a place]",9319,1 
"09003","68940","09","69010","CT","Hartford CT","Simsbury town, Hartford CT","Simsbury Center CDP, CT",2810,0.2794 
"09003","68940","09","75100","CT","Hartford CT","Simsbury town, Hartford CT","Tariffville CDP, CT",671,0.0667 
"09003","68940","09","80770","CT","Hartford CT","Simsbury town, Hartford CT","Weatogue CDP, CT",1143,0.1137 
"09003","68940","09","83990","CT","Hartford CT","Simsbury town, Hartford CT","West Simsbury CDP, CT",936,0.0931 
"09003","68940","09","99999","CT","Hartford CT","Simsbury town, Hartford CT","[not in a place]",4497,0.4472 
"09003","70550","09","60260","CT","Hartford CT","Southington town, Hartford CT","Plantsville CDP, CT",971,0.0535 
"09003","70550","09","99999","CT","Hartford CT","Southington town, Hartford CT","[not in a place]",17174,0.9465 
"09003","71390","09","99999","CT","Hartford CT","South Windsor town, Hartford CT","[not in a place]",10804,1 
"09003","74540","09","74655","CT","Hartford CT","Suffield town, Hartford CT","Suffield Depot CDP, CT",720,0.1225 
"09003","74540","09","99999","CT","Hartford CT","Suffield town, Hartford CT","[not in a place]",5159,0.8775 
"09003","82590","09","82660","CT","Hartford CT","West Hartford town, Hartford CT","West Hartford CDP, CT",27240,1 
"09003","84900","09","84970","CT","Hartford CT","Wethersfield town, Hartford CT","Wethersfield CDP, CT",11809,1 
"09003","87000","09","99999","CT","Hartford CT","Windsor town, Hartford CT","[not in a place]",12038,1 
"09003","87070","09","87140","CT","Hartford CT","Windsor Locks town, Hartford CT","Windsor Locks CDP, CT",5815,1 
"09005","02760","09","60540","CT","Litchfield CT","Barkhamsted town, Litchfield CT","Pleasant Valley CDP, CT",79,0.0504 
"09005","02760","09","64880","CT","Litchfield CT","Barkhamsted town, Litchfield CT","Riverton CDP, CT",70,0.0447 
"09005","02760","09","99999","CT","Litchfield CT","Barkhamsted town, Litchfield CT","[not in a place]",1417,0.9049 
"09005","04930","09","04945","CT","Litchfield CT","Bethlehem town, Litchfield CT","Bethlehem Village CDP, CT",1000,0.6231 
"09005","04930","09","99999","CT","Litchfield CT","Bethlehem town, Litchfield CT","[not in a place]",605,0.3769 
"09005","08210","09","08140","CT","Litchfield CT","Bridgewater town, Litchfield CT","Bridgewater CDP, CT",72,0.0834 
"09005","08210","09","99999","CT","Litchfield CT","Bridgewater town, Litchfield CT","[not in a place]",791,0.9166 
"09005","10940","09","27390","CT","Litchfield CT","Canaan town, Litchfield CT","Falls Village CDP, CT",224,0.3505 
"09005","10940","09","99999","CT","Litchfield CT","Canaan town, Litchfield CT","[not in a place]",415,0.6495 
"09005","16050","09","99999","CT","Litchfield CT","Colebrook town, Litchfield CT","[not in a place]",694,1 
"09005","17240","09","17170","CT","Litchfield CT","Cornwall town, Litchfield CT","Cornwall CDP, CT",56,0.0559 
"09005","17240","09","17310","CT","Litchfield CT","Cornwall town, Litchfield CT","Cornwall Bridge CDP, CT",151,0.1507 
"09005","17240","09","82030","CT","Litchfield CT","Cornwall town, Litchfield CT","West Cornwall CDP, CT",86,0.0858 
"09005","17240","09","99999","CT","Litchfield CT","Cornwall town, Litchfield CT","[not in a place]",709,0.7076 
"09005","32290","09","99999","CT","Litchfield CT","Goshen town, Litchfield CT","[not in a place]",1708,1 
"09005","37280","09","55725","CT","Litchfield CT","Harwinton town, Litchfield CT","Northwest Harwinton CDP, CT",1397,0.604 
"09005","37280","09","99999","CT","Litchfield CT","Harwinton town, Litchfield CT","[not in a place]",916,0.396 
"09005","40290","09","99999","CT","Litchfield CT","Kent town, Litchfield CT","[not in a place]",1687,1 
"09005","43370","09","02690","CT","Litchfield CT","Litchfield town, Litchfield CT","Bantam borough, CT",450,0.1135 
"09005","43370","09","43300","CT","Litchfield CT","Litchfield town, Litchfield CT","Litchfield borough, CT",657,0.1657 
"09005","43370","09","99999","CT","Litchfield CT","Litchfield town, Litchfield CT","[not in a place]",2859,0.7209 
"09005","49460","09","99999","CT","Litchfield CT","Morris town, Litchfield CT","[not in a place]",1253,1 
"09005","51350","09","51420","CT","Litchfield CT","New Hartford town, Litchfield CT","New Hartford Center CDP, CT",657,0.2214 
"09005","51350","09","99999","CT","Litchfield CT","New Hartford town, Litchfield CT","[not in a place]",2311,0.7786 
"09005","52630","09","11500","CT","Litchfield CT","New Milford town, Litchfield CT","Candlewood Lake Club CDP, CT",86,0.0072 
"09005","52630","09","14615","CT","Litchfield CT","New Milford town, Litchfield CT","Chimney Point CDP, CT",50,0.0042 
"09005","52630","09","30470","CT","Litchfield CT","New Milford town, Litchfield CT","Gaylordsville CDP, CT",241,0.0202 
"09005","52630","09","52560","CT","Litchfield CT","New Milford town, Litchfield CT","New Milford CDP, CT",3301,0.2767 
"09005","52630","09","99999","CT","Litchfield CT","New Milford town, Litchfield CT","[not in a place]",8250,0.6916 
"09005","53470","09","53400","CT","Litchfield CT","Norfolk town, Litchfield CT","Norfolk CDP, CT",336,0.3605 
"09005","53470","09","99999","CT","Litchfield CT","Norfolk town, Litchfield CT","[not in a place]",596,0.6395 
"09005","54030","09","10870","CT","Litchfield CT","North Canaan town, Litchfield CT","Canaan CDP, CT",643,0.4064 
"09005","54030","09","99999","CT","Litchfield CT","North Canaan town, Litchfield CT","[not in a place]",939,0.5936 
"09005","60750","09","75240","CT","Litchfield CT","Plymouth town, Litchfield CT","Terryville CDP, CT",2398,0.4655 
"09005","60750","09","99999","CT","Litchfield CT","Plymouth town, Litchfield CT","[not in a place]",2753,0.5345 
"09005","65930","09","99999","CT","Litchfield CT","Roxbury town, Litchfield CT","[not in a place]",1163,1 
"09005","66420","09","41830","CT","Litchfield CT","Salisbury town, Litchfield CT","Lakeville CDP, CT",645,0.2561 
"09005","66420","09","99999","CT","Litchfield CT","Salisbury town, Litchfield CT","[not in a place]",1874,0.7439 
"09005","67960","09","17310","CT","Litchfield CT","Sharon town, Litchfield CT","Cornwall Bridge CDP, CT",18,0.0104 
"09005","67960","09","67890","CT","Litchfield CT","Sharon town, Litchfield CT","Sharon CDP, CT",420,0.2436 
"09005","67960","09","99999","CT","Litchfield CT","Sharon town, Litchfield CT","[not in a place]",1286,0.7459 
"09005","75730","09","75660","CT","Litchfield CT","Thomaston town, Litchfield CT","Thomaston CDP, CT",989,0.2961 
"09005","75730","09","99999","CT","Litchfield CT","Thomaston town, Litchfield CT","[not in a place]",2351,0.7039 
"09005","76570","09","76500","CT","Litchfield CT","Torrington town, Litchfield CT","Torrington city, CT",17040,1 
"09005","79510","09","99999","CT","Litchfield CT","Warren town, Litchfield CT","[not in a place]",790,1 
"09005","79720","09","52770","CT","Litchfield CT","Washington town, Litchfield CT","New Preston CDP, CT",661,0.3215 
"09005","79720","09","99999","CT","Litchfield CT","Washington town, Litchfield CT","[not in a place]",1395,0.6785 
"09005","80490","09","56690","CT","Litchfield CT","Watertown town, Litchfield CT","Oakville CDP, CT",3990,0.4367 
"09005","80490","09","80420","CT","Litchfield CT","Watertown town, Litchfield CT","Watertown CDP, CT",1725,0.1888 
"09005","80490","09","99999","CT","Litchfield CT","Watertown town, Litchfield CT","[not in a place]",3422,0.3745 
"09005","86440","09","87350","CT","Litchfield CT","Winchester town, Litchfield CT","Winsted CDP, CT",3819,0.7066 
"09005","86440","09","99999","CT","Litchfield CT","Winchester town, Litchfield CT","[not in a place]",1586,0.2934 
"09005","87910","09","87980","CT","Litchfield CT","Woodbury town, Litchfield CT","Woodbury Center CDP, CT",728,0.1588 
"09005","87910","09","99999","CT","Litchfield CT","Woodbury town, Litchfield CT","[not in a place]",3856,0.8412 
"09007","14300","09","14370","CT","Middlesex CT","Chester town, Middlesex CT","Chester Center CDP, CT",800,0.4462 
"09007","14300","09","99999","CT","Middlesex CT","Chester town, Middlesex CT","[not in a place]",993,0.5538 
"09007","15350","09","15420","CT","Middlesex CT","Clinton town, Middlesex CT","Clinton CDP, CT",1758,0.2798 
"09007","15350","09","99999","CT","Middlesex CT","Clinton town, Middlesex CT","[not in a place]",4525,0.7202 
"09007","18080","09","99999","CT","Middlesex CT","Cromwell town, Middlesex CT","[not in a place]",6162,1 
"09007","19130","09","19200","CT","Middlesex CT","Deep River town, Middlesex CT","Deep River Center CDP, CT",1377,0.652 
"09007","19130","09","99999","CT","Middlesex CT","Deep River town, Middlesex CT","[not in a place]",735,0.348 
"09007","20810","09","20740","CT","Middlesex CT","Durham town, Middlesex CT","Durham CDP, CT",1537,0.5435 
"09007","20810","09","99999","CT","Middlesex CT","Durham town, Middlesex CT","[not in a place]",1291,0.4565 
"09007","22280","09","49110","CT","Middlesex CT","East Haddam town, Middlesex CT","Moodus CDP, CT",1018,0.2274 
"09007","22280","09","99999","CT","Middlesex CT","East Haddam town, Middlesex CT","[not in a place]",3459,0.7726 
"09007","22490","09","22420","CT","Middlesex CT","East Hampton town, Middlesex CT","East Hampton CDP, CT",1258,0.2232 
"09007","22490","09","41410","CT","Middlesex CT","East Hampton town, Middlesex CT","Lake Pocotopaug CDP, CT",2427,0.4305 
"09007","22490","09","99999","CT","Middlesex CT","East Hampton town, Middlesex CT","[not in a place]",1952,0.3463 
"09007","26270","09","26370","CT","Middlesex CT","Essex town, Middlesex CT","Essex Village CDP, CT",1407,0.4226 
"09007","26270","09","99999","CT","Middlesex CT","Essex town, Middlesex CT","[not in a place]",1922,0.5774 
"09007","35230","09","38050","CT","Middlesex CT","Haddam town, Middlesex CT","Higganum CDP, CT",953,0.2692 
"09007","35230","09","99999","CT","Middlesex CT","Haddam town, Middlesex CT","[not in a place]",2587,0.7308 
"09007","40710","09","99999","CT","Middlesex CT","Killingworth town, Middlesex CT","[not in a place]",2601,1 
"09007","47080","09","99999","CT","Middlesex CT","Middlefield town, Middlesex CT","[not in a place]",1882,1 
"09007","47360","09","47290","CT","Middlesex CT","Middletown town, Middlesex CT","Middletown city, CT",21671,1 
"09007","57320","09","27810","CT","Middlesex CT","Old Saybrook town, Middlesex CT","Fenwick borough, CT",77,0.0131 
"09007","57320","09","57390","CT","Middlesex CT","Old Saybrook town, Middlesex CT","Old Saybrook Center CDP, CT",1250,0.2129 
"09007","57320","09","67050","CT","Middlesex CT","Old Saybrook town, Middlesex CT","Saybrook Manor CDP, CT",1051,0.179 
"09007","57320","09","99999","CT","Middlesex CT","Old Saybrook town, Middlesex CT","[not in a place]",3492,0.5949 
"09007","61800","09","61870","CT","Middlesex CT","Portland town, Middlesex CT","Portland CDP, CT",2691,0.6519 
"09007","61800","09","99999","CT","Middlesex CT","Portland town, Middlesex CT","[not in a place]",1437,0.3481 
"09007","81680","09","81750","CT","Middlesex CT","Westbrook town, Middlesex CT","Westbrook Center CDP, CT",1866,0.4693 
"09007","81680","09","99999","CT","Middlesex CT","Westbrook town, Middlesex CT","[not in a place]",2110,0.5307 
"09009","01220","09","01150","CT","New Haven CT","Ansonia town, New Haven CT","Ansonia city, CT",8104,1 
"09009","03250","09","99999","CT","New Haven CT","Beacon Falls town, New Haven CT","[not in a place]",2618,1 
"09009","04580","09","99999","CT","New Haven CT","Bethany town, New Haven CT","[not in a place]",2039,1 
"09009","07310","09","07345","CT","New Haven CT","Branford town, New Haven CT","Branford Center CDP, CT",3410,0.2405 
"09009","07310","09","99999","CT","New Haven CT","Branford town, New Haven CT","[not in a place]",10770,0.7595 
"09009","14160","09","14200","CT","New Haven CT","Cheshire town, New Haven CT","Cheshire Village CDP, CT",2637,0.2451 
"09009","14160","09","99999","CT","New Haven CT","Cheshire town, New Haven CT","[not in a place]",8121,0.7549 
"09009","19550","09","19480","CT","New Haven CT","Derby town, New Haven CT","Derby city, CT",5759,1 
"09009","22910","09","22980","CT","New Haven CT","East Haven town, New Haven CT","East Haven CDP, CT",12394,1 
"09009","34950","09","35020","CT","New Haven CT","Guilford town, New Haven CT","Guilford Center CDP, CT",1404,0.1448 
"09009","34950","09","99999","CT","New Haven CT","Guilford town, New Haven CT","[not in a place]",8289,0.8552 
"09009","35650","09","63313","CT","New Haven CT","Hamden town, New Haven CT","Quinnipiac University CDP, CT",11,0.0004 
"09009","35650","09","99999","CT","New Haven CT","Hamden town, New Haven CT","[not in a place]",25973,0.9996 
"09009","44560","09","44630","CT","New Haven CT","Madison town, New Haven CT","Madison Center CDP, CT",1400,0.1737 
"09009","44560","09","99999","CT","New Haven CT","Madison town, New Haven CT","[not in a place]",6660,0.8263 
"09009","46520","09","46450","CT","New Haven CT","Meriden town, New Haven CT","Meriden city, CT",26177,1 
"09009","46940","09","99999","CT","New Haven CT","Middlebury town, New Haven CT","[not in a place]",3047,1 
"09009","47535","09","47515","CT","New Haven CT","Milford town, New Haven CT","Milford city (balance), CT",22967,0.9671 
"09009","47535","09","88050","CT","New Haven CT","Milford town, New Haven CT","Woodmont borough, CT",782,0.0329 
"09009","49950","09","49880","CT","New Haven CT","Naugatuck town, New Haven CT","Naugatuck borough, CT",13239,0.9997 
"09009","49950","09","99999","CT","New Haven CT","Naugatuck town, New Haven CT","[not in a place]",4,0.0003 
"09009","52070","09","52000","CT","New Haven CT","New Haven town, New Haven CT","New Haven city, CT",57525,1 
"09009","53890","09","54450","CT","New Haven CT","North Branford town, New Haven CT","Northford CDP, CT",2362,0.4193 
"09009","53890","09","99999","CT","New Haven CT","North Branford town, New Haven CT","[not in a place]",3271,0.5807 
"09009","54870","09","54940","CT","New Haven CT","North Haven town, New Haven CT","North Haven CDP, CT",9981,1 
"09009","57600","09","57670","CT","New Haven CT","Orange town, New Haven CT","Orange CDP, CT",5480,1 
"09009","58300","09","99999","CT","New Haven CT","Oxford town, New Haven CT","[not in a place]",5022,1 
"09009","62290","09","99999","CT","New Haven CT","Prospect town, New Haven CT","[not in a place]",3758,1 
"09009","67610","09","99999","CT","New Haven CT","Seymour town, New Haven CT","[not in a place]",7112,1 
"09009","69640","09","37930","CT","New Haven CT","Southbury town, New Haven CT","Heritage Village CDP, CT",3651,0.3939 
"09009","69640","09","99999","CT","New Haven CT","Southbury town, New Haven CT","[not in a place]",5619,0.6061 
"09009","78740","09","78880","CT","New Haven CT","Wallingford town, New Haven CT","Wallingford Center CDP, CT",8312,0.4389 
"09009","78740","09","99999","CT","New Haven CT","Wallingford town, New Haven CT","[not in a place]",10626,0.5611 
"09009","80070","09","80000","CT","New Haven CT","Waterbury town, New Haven CT","Waterbury city, CT",48392,1 
"09009","82870","09","82800","CT","New Haven CT","West Haven town, New Haven CT","West Haven city, CT",22735,1 
"09009","87560","09","99999","CT","New Haven CT","Wolcott town, New Haven CT","[not in a place]",6408,1 
"09009","87700","09","99999","CT","New Haven CT","Woodbridge town, New Haven CT","[not in a place]",3476,1 
"09011","06820","09","99999","CT","New London CT","Bozrah town, New London CT","[not in a place]",1131,1 
"09011","15910","09","15840","CT","New London CT","Colchester town, New London CT","Colchester CDP, CT",2259,0.3507 
"09011","15910","09","99999","CT","New London CT","Colchester town, New London CT","[not in a place]",4182,0.6493 
"09011","23400","09","53120","CT","New London CT","East Lyme town, New London CT","Niantic CDP, CT",1989,0.2191 
"09011","23400","09","99999","CT","New London CT","East Lyme town, New London CT","[not in a place]",7091,0.7809 
"09011","29910","09","99999","CT","New London CT","Franklin town, New London CT","[not in a place]",790,1 
"09011","33900","09","39940","CT","New London CT","Griswold town, New London CT","Jewett City borough, CT",1608,0.3199 
"09011","33900","09","99999","CT","New London CT","Griswold town, New London CT","[not in a place]",3419,0.6801 
"09011","34250","09","16960","CT","New London CT","Groton town, New London CT","Conning Towers-Nautilus Park CDP, CT",2827,0.1557 
"09011","34250","09","34180","CT","New London CT","Groton town, New London CT","Groton city, CT",4785,0.2636 
"09011","34250","09","34460","CT","New London CT","Groton town, New London CT","Groton Long Point borough, CT",628,0.0346 
"09011","34250","09","43790","CT","New London CT","Groton town, New London CT","Long Hill CDP, CT",2319,0.1277 
"09011","34250","09","49810","CT","New London CT","Groton town, New London CT","Mystic CDP, CT",763,0.042 
"09011","34250","09","53260","CT","New London CT","Groton town, New London CT","Noank CDP, CT",926,0.051 
"09011","34250","09","57180","CT","New London CT","Groton town, New London CT","Old Mystic CDP, CT",1501,0.0827 
"09011","34250","09","61730","CT","New London CT","Groton town, New London CT","Poquonock Bridge CDP, CT",690,0.038 
"09011","34250","09","99999","CT","New London CT","Groton town, New London CT","[not in a place]",3715,0.2046 
"09011","42390","09","99999","CT","New London CT","Lebanon town, New London CT","[not in a place]",3147,1 
"09011","42600","09","30190","CT","New London CT","Ledyard town, New London CT","Gales Ferry CDP, CT",496,0.0807 
"09011","42600","09","45995","CT","New London CT","Ledyard town, New London CT","Mashantucket CDP, CT",142,0.0231 
"09011","42600","09","99999","CT","New London CT","Ledyard town, New London CT","[not in a place]",5512,0.8963 
"09011","43230","09","99999","CT","New London CT","Lisbon town, New London CT","[not in a place]",1728,1 
"09011","44210","09","99999","CT","New London CT","Lyme town, New London CT","[not in a place]",1220,1 
"09011","48900","09","58520","CT","New London CT","Montville town, New London CT","Oxoboxo River CDP, CT",1549,0.2093 
"09011","48900","09","99999","CT","New London CT","Montville town, New London CT","[not in a place]",5853,0.7907 
"09011","52350","09","52280","CT","New London CT","New London town, New London CT","New London city, CT",12119,1 
"09011","55500","09","99999","CT","New London CT","North Stonington town, New London CT","[not in a place]",2226,1 
"09011","56270","09","56200","CT","New London CT","Norwich town, New London CT","Norwich city, CT",18769,1 
"09011","57040","09","99999","CT","New London CT","Old Lyme town, New London CT","[not in a place]",4988,1 
"09011","62150","09","99999","CT","New London CT","Preston town, New London CT","[not in a place]",2049,1 
"09011","66210","09","99999","CT","New London CT","Salem town, New London CT","[not in a place]",1719,1 
"09011","71670","09","02550","CT","New London CT","Sprague town, New London CT","Baltic CDP, CT",542,0.4274 
"09011","71670","09","99999","CT","New London CT","Sprague town, New London CT","[not in a place]",726,0.5726 
"09011","73770","09","49810","CT","New London CT","Stonington town, New London CT","Mystic CDP, CT",1569,0.1661 
"09011","73770","09","59140","CT","New London CT","Stonington town, New London CT","Pawcatuck CDP, CT",2808,0.2972 
"09011","73770","09","73700","CT","New London CT","Stonington town, New London CT","Stonington borough, CT",780,0.0826 
"09011","73770","09","99999","CT","New London CT","Stonington town, New London CT","[not in a place]",4290,0.4541 
"09011","78600","09","99999","CT","New London CT","Voluntown town, New London CT","[not in a place]",1135,1 
"09011","80280","09","80210","CT","New London CT","Waterford town, New London CT","Waterford CDP, CT",1521,0.1714 
"09011","80280","09","99999","CT","New London CT","Waterford town, New London CT","[not in a place]",7352,0.8286 
"09013","01080","09","99999","CT","Tolland CT","Andover town, Tolland CT","[not in a place]",1324,1 
"09013","06260","09","99999","CT","Tolland CT","Bolton town, Tolland CT","[not in a place]",2045,1 
"09013","16400","09","99999","CT","Tolland CT","Columbia town, Tolland CT","[not in a place]",2294,1 
"09013","17800","09","17835","CT","Tolland CT","Coventry town, Tolland CT","Coventry Lake CDP, CT",1446,0.2742 
"09013","17800","09","69990","CT","Tolland CT","Coventry town, Tolland CT","South Coventry CDP, CT",743,0.1409 
"09013","17800","09","99999","CT","Tolland CT","Coventry town, Tolland CT","[not in a place]",3084,0.5849 
"09013","25360","09","18220","CT","Tolland CT","Ellington town, Tolland CT","Crystal Lake CDP, CT",887,0.1257 
"09013","25360","09","99999","CT","Tolland CT","Ellington town, Tolland CT","[not in a place]",6167,0.8743 
"09013","37910","09","99999","CT","Tolland CT","Hebron town, Tolland CT","[not in a place]",3618,1 
"09013","44910","09","45120","CT","Tolland CT","Mansfield town, Tolland CT","Mansfield Center CDP, CT",461,0.0663 
"09013","44910","09","73980","CT","Tolland CT","Mansfield town, Tolland CT","Storrs CDP, CT",2494,0.3585 
"09013","44910","09","99999","CT","Tolland CT","Mansfield town, Tolland CT","[not in a place]",4001,0.5752 
"09013","69220","09","69150","CT","Tolland CT","Somers town, Tolland CT","Somers CDP, CT",881,0.2432 
"09013","69220","09","99999","CT","Tolland CT","Somers town, Tolland CT","[not in a place]",2741,0.7568 
"09013","72090","09","72300","CT","Tolland CT","Stafford town, Tolland CT","Stafford Springs CDP, CT",2364,0.4514 
"09013","72090","09","99999","CT","Tolland CT","Stafford town, Tolland CT","[not in a place]",2873,0.5486 
"09013","76290","09","99999","CT","Tolland CT","Tolland town, Tolland CT","[not in a place]",5630,1 
"09013","77830","09","99999","CT","Tolland CT","Union town, Tolland CT","[not in a place]",377,1 
"09013","78250","09","65230","CT","Tolland CT","Vernon town, Tolland CT","Rockville CDP, CT",3971,0.269 
"09013","78250","09","99999","CT","Tolland CT","Vernon town, Tolland CT","[not in a place]",10790,0.731 
"09013","85950","09","99999","CT","Tolland CT","Willington town, Tolland CT","[not in a place]",2685,1 
"09015","01430","09","41238","CT","Windham CT","Ashford town, Windham CT","Lake Chaffee CDP, CT",191,0.0993 
"09015","01430","09","99999","CT","Windham CT","Ashford town, Windham CT","[not in a place]",1732,0.9007 
"09015","09190","09","09120","CT","Windham CT","Brooklyn town, Windham CT","Brooklyn CDP, CT",234,0.07 
"09015","09190","09","21160","CT","Windham CT","Brooklyn town, Windham CT","East Brooklyn CDP, CT",1009,0.3019 
"09015","09190","09","80630","CT","Windham CT","Brooklyn town, Windham CT","Wauregan CDP, CT",140,0.0419 
"09015","09190","09","99999","CT","Windham CT","Brooklyn town, Windham CT","[not in a place]",1959,0.5862 
"09015","12130","09","99999","CT","Windham CT","Canterbury town, Windham CT","[not in a place]",2044,1 
"09015","13810","09","99999","CT","Windham CT","Chaplin town, Windham CT","[not in a place]",955,1 
"09015","21860","09","99999","CT","Windham CT","Eastford town, Windham CT","[not in a place]",806,1 
"09015","36000","09","99999","CT","Windham CT","Hampton town, Windham CT","[not in a place]",790,1 
"09015","40500","09","18780","CT","Windham CT","Killingly town, Windham CT","Danielson borough, CT",1926,0.2443 
"09015","40500","09","18990","CT","Windham CT","Killingly town, Windham CT","Dayville CDP, CT",333,0.0422 
"09015","40500","09","99999","CT","Windham CT","Killingly town, Windham CT","[not in a place]",5625,0.7135 
"09015","59980","09","49180","CT","Windham CT","Plainfield town, Windham CT","Moosup CDP, CT",1390,0.2219 
"09015","59980","09","60090","CT","Windham CT","Plainfield town, Windham CT","Plainfield Village CDP, CT",1094,0.1746 
"09015","59980","09","80630","CT","Windham CT","Plainfield town, Windham CT","Wauregan CDP, CT",456,0.0728 
"09015","59980","09","99999","CT","Windham CT","Plainfield town, Windham CT","[not in a place]",3324,0.5307 
"09015","61030","09","99999","CT","Windham CT","Pomfret town, Windham CT","[not in a place]",1686,1 
"09015","62710","09","62640","CT","Windham CT","Putnam town, Windham CT","Putnam CDP, CT",3424,0.7978 
"09015","62710","09","99999","CT","Windham CT","Putnam town, Windham CT","[not in a place]",868,0.2022 
"09015","67400","09","99999","CT","Windham CT","Scotland town, Windham CT","[not in a place]",650,1 
"09015","73420","09","99999","CT","Windham CT","Sterling town, Windham CT","[not in a place]",1479,1 
"09015","75870","09","46240","CT","Windham CT","Thompson town, Windham CT","Mechanicsville CDP, CT",278,0.0671 
"09015","75870","09","54730","CT","Windham CT","Thompson town, Windham CT","North Grosvenor Dale CDP, CT",698,0.1685 
"09015","75870","09","63270","CT","Windham CT","Thompson town, Windham CT","Quinebaug CDP, CT",519,0.1253 
"09015","75870","09","99999","CT","Windham CT","Thompson town, Windham CT","[not in a place]",2648,0.6392 
"09015","86790","09","71250","CT","Windham CT","Windham town, Windham CT","South Windham CDP, CT",644,0.0666 
"09015","86790","09","85810","CT","Windham CT","Windham town, Windham CT","Willimantic CDP, CT",6891,0.7131 
"09015","86790","09","99999","CT","Windham CT","Windham town, Windham CT","[not in a place]",2128,0.2202 
"09015","88190","09","41226","CT","Windham CT","Woodstock town, Windham CT","Lake Bungee CDP, CT",325,0.0886 
"09015","88190","09","63165","CT","Windham CT","Woodstock town, Windham CT","Quasset Lake CDP, CT",104,0.0283 
"09015","88190","09","71530","CT","Windham CT","Woodstock town, Windham CT","South Woodstock CDP, CT",677,0.1845 
"09015","88190","09","87455","CT","Windham CT","Woodstock town, Windham CT","Witches Woods CDP, CT",79,0.0215 
"09015","88190","09","99999","CT","Windham CT","Woodstock town, Windham CT","[not in a place]",2484,0.677 
